[{"OBJECT_NAME":"STARLINK-35679","OBJECT_ID":"2025-257AE","EPOCH":"2026-03-09T16:28:22.959840","MEAN_MOTION":15.30194471,"ECCENTRICITY":8.862e-5,"INCLINATION":53.1584,"RA_OF_ASC_NODE":216.9791,"ARG_OF_PERICENTER":66.6156,"MEAN_ANOMALY":293.4938,"EPHEMERIS_TYPE":0,"CLASSIFICATION_TYPE":"U","NORAD_CAT_ID":66408,"ELEMENT_SET_NO":999,"REV_AT_EPOCH":1973,"BSTAR":0.0011385542,"MEAN_MOTION_DOT":0.00033508,"MEAN_MOTION_DDOT":0},{"OBJECT_NAME":"CZ-6A R\/B","OBJECT_ID":"2023-168B","EPOCH":"2026-03-09T21:13:08.722272","MEAN_MOTION":15.16100791,"ECCENTRICITY":0.00607667,"INCLINATION":97.7542,"RA_OF_ASC_NODE":104.7688,"ARG_OF_PERICENTER":339.2379,"MEAN_ANOMALY":20.6386,"EPHEMERIS_TYPE":0,"CLASSIFICATION_TYPE":"U","NORAD_CAT_ID":58200,"ELEMENT_SET_NO":999,"REV_AT_EPOCH":12979,"BSTAR":0.00029693841,"MEAN_MOTION_DOT":5.919e-5,"MEAN_MOTION_DDOT":0}]
